NORAD_CAT_ID,OBJECT_NAME,OBJECT_TYPE,EPOCH,MEAN_MOTION,ECCENTRICITY,INCLINATION,RA_OF_ASC_NODE,ARG_OF_PERICENTER,MEAN_ANOMALY,BSTAR,MEAN_MOTION_DOT,MEAN_MOTION_DDOT,TLE_LINE0,TLE_LINE1,TLE_LINE2,SEMIMAJOR_AXIS,PERIOD,APOGEE,PERIGEE,DECAYED
52578.0,STARLINK-3833,PAYLOAD,2023-04-27 11:28:20,15.0884731,0.0001262,53.2146,155.2334,97.2078,262.9058,0.0002557,3.785e-05,0.0,0 STARLINK-3833,1 52578U 22051AU  23117.47801769  .00003785  00000-0  25570-3 0  9998,2 52578  53.2146 155.2334 0001262  97.2078 262.9058 15.08847310 53284,6917.858,95.437,540.596,538.85,0.0
52578.0,STARLINK-3833,PAYLOAD,2023-04-27 13:03:43,15.08848073,0.0001265,53.2148,154.9359,96.3182,263.7955,0.0002761,4.11e-05,0.0,0 STARLINK-3833,1 52578U 22051AU  23117.54425734  .00004110  00000-0  27610-3 0  9990,2 52578  53.2148 154.9359 0001265  96.3182 263.7955 15.08848073 53369,6917.856,95.437,540.596,538.846,0.0
52578.0,STARLINK-3833,PAYLOAD,2023-04-28 09:43:44,15.08849452,0.0001262,53.2148,151.0703,93.7283,266.3854,0.0001091,1.449e-05,0.0,0 STARLINK-3833,1 52578U 22051AU  23118.40537302  .00001449  00000-0  10910-3 0  9998,2 52578  53.2148 151.0703 0001262  93.7283 266.3854 15.08849452 53426,6917.851,95.437,540.59,538.843,0.0
52578.0,STARLINK-3833,PAYLOAD,2023-04-28 19:16:03,15.08840561,0.0001164,53.2151,149.2864,91.669,268.4435,-1.15e-05,-4.71e-06,0.0,0 STARLINK-3833,1 52578U 22051AU  23118.80281547 -.00000471  00000-0 -11500-4 0  9992,2 52578  53.2151 149.2864 0001164  91.6690 268.4435 15.08840561 53551,6917.879,95.438,540.549,538.938,0.0
52578.0,STARLINK-3833,PAYLOAD,2023-04-29 09:34:31,15.08832259,0.000134,53.2151,146.6111,87.8443,272.2703,0.00035614,5.383e-05,0.0,0 STARLINK-3833,1 52578U 22051AU  23119.39897986  .00005383  00000-0  35614-3 0  9993,2 52578  53.2151 146.6111 0001340  87.8443 272.2703 15.08832259 53574,6917.904,95.438,540.696,538.842,0.0
52578.0,STARLINK-3833,PAYLOAD,2023-04-30 12:36:05,15.08837875,0.0001311,53.2143,141.5546,96.4833,263.6309,3.9994e-05,3.49e-06,0.0,0 STARLINK-3833,1 52578U 22051AU  23120.52505831  .00000349  00000-0  39994-4 0  9998,2 52578  53.2143 141.5546 0001311  96.4833 263.6309 15.08837875 53810,6917.887,95.438,540.659,538.845,0.0
52578.0,STARLINK-3833,PAYLOAD,2023-05-01 12:26:51,15.08843551,0.0001291,53.2145,137.0937,90.9877,269.1263,0.00011544,1.55e-05,0.0,0 STARLINK-3833,1 52578U 22051AU  23121.51865411  .00001550  00000-0  11544-3 0  9996,2 52578  53.2145 137.0937 0001291  90.9877 269.1263 15.08843551 53896,6917.87,95.437,540.628,538.841,0.0
52578.0,STARLINK-3833,PAYLOAD,2023-05-02 05:56:06,15.0884275,0.0001304,53.2153,133.822,89.9501,270.1641,0.0001318,1.81e-05,0.0,0 STARLINK-3833,1 52578U 22051AU  23122.24729514  .00001810  00000-0  13180-3 0  9997,2 52578  53.2153 133.8220 0001304  89.9501 270.1641 15.08842750 54074,6917.872,95.437,540.639,538.835,0.0
52578.0,STARLINK-3833,PAYLOAD,2023-05-02 10:42:15,15.08845106,0.0001311,53.2156,132.93,87.0819,273.0323,0.00014478,2.017e-05,0.0,0 STARLINK-3833,1 52578U 22051AU  23122.44601346  .00002017  00000-0  14478-3 0  9992,2 52578  53.2156 132.9300 0001311  87.0819 273.0323 15.08845106 54038,6917.865,95.437,540.637,538.823,0.0
52578.0,STARLINK-3833,PAYLOAD,2023-05-03 05:46:53,15.08837867,0.0001426,53.2155,129.3612,99.2521,260.8632,3.439e-05,2.59e-06,0.0,0 STARLINK-3833,1 52578U 22051AU  23123.24090040  .00000259  00000-0  34390-4 0  9996,2 52578  53.2155 129.3612 0001426  99.2521 260.8632 15.08837867 54228,6917.887,95.438,540.738,538.765,0.0
52578.0,STARLINK-3833,PAYLOAD,2023-05-03 10:33:03,15.08838952,0.000135,53.2154,128.4705,88.6627,271.452,2.2714e-05,7.4e-07,0.0,0 STARLINK-3833,1 52578U 22051AU  23123.43962009  .00000074  00000-0  22714-4 0  9992,2 52578  53.2154 128.4705 0001350  88.6627 271.4520 15.08838952 54180,6917.884,95.438,540.683,538.815,0.0
52578.0,STARLINK-3833,PAYLOAD,2023-05-04 08:48:27,15.08838438,0.0001394,53.2165,124.3081,90.8268,269.2884,1.7924e-05,-3e-08,0.0,0 STARLINK-3833,1 52578U 22051AU  23124.36698136 -.00000003  00000-0  17924-4 0  9992,2 52578  53.2165 124.3081 0001394  90.8268 269.2884 15.08838438 54398,6917.885,95.438,540.715,538.786,0.0
52578.0,STARLINK-3833,PAYLOAD,2023-05-05 16:36:10,15.08837264,0.0001293,53.2161,118.3603,90.2408,269.8732,6.2399e-05,7.05e-06,0.0,0 STARLINK-3833,1 52578U 22051AU  23125.69178426  .00000705  00000-0  62399-4 0  9998,2 52578  53.2161 118.3603 0001293  90.2408 269.8732 15.08837264 54524,6917.889,95.438,540.648,538.859,0.0
52578.0,STARLINK-3833,PAYLOAD,2023-05-05 22:57:42,15.0883964,0.0001228,53.2158,117.1703,91.6731,268.4402,6.6689e-05,7.74e-06,0.0,0 STARLINK-3833,1 52578U 22051AU  23125.95674351  .00000774  00000-0  66689-4 0  9997,2 52578  53.2158 117.1703 0001228  91.6731 268.4402 15.08839640 54631,6917.881,95.438,540.596,538.897,0.0
52578.0,STARLINK-3833,PAYLOAD,2023-05-06 08:30:01,15.08844518,0.0001235,53.2159,115.386,91.2747,268.8386,0.00010377,1.364e-05,0.0,0 STARLINK-3833,1 52578U 22051AU  23126.35418036  .00001364  00000-0  10377-3 0  9996,2 52578  53.2159 115.3860 0001235  91.2747 268.8386 15.08844518 54621,6917.867,95.437,540.586,538.877,0.0
52578.0,STARLINK-3833,PAYLOAD,2023-05-07 06:45:25,15.08845407,0.0001204,53.2158,111.2218,90.4504,269.6626,9.9903e-05,1.303e-05,0.0,0 STARLINK-3833,1 52578U 22051AU  23127.28153972  .00001303  00000-0  99903-4 0  9990,2 52578  53.2158 111.2218 0001204  90.4504 269.6626 15.08845407 54837,6917.864,95.437,540.562,538.896,0.0
52578.0,STARLINK-3833,PAYLOAD,2023-05-07 16:17:44,15.08841494,0.0001197,53.216,109.4378,89.7902,270.3227,6.177e-05,6.95e-06,0.0,0 STARLINK-3833,1 52578U 22051AU  23127.67898271  .00000695  00000-0  61770-4 0  9995,2 52578  53.2160 109.4378 0001197  89.7902 270.3227 15.08841494 54827,6917.876,95.437,540.569,538.913,0.0
52578.0,STARLINK-3833,PAYLOAD,2023-05-08 05:00:49,15.08840905,0.0001221,53.2161,107.0581,94.8263,265.2869,3.4549e-05,2.62e-06,0.0,0 STARLINK-3833,1 52578U 22051AU  23128.20890388  .00000262  00000-0  34549-4 0  9990,2 52578  53.2161 107.0581 0001221  94.8263 265.2869 15.08840905 54970,6917.878,95.437,540.587,538.898,0.0
52578.0,STARLINK-3833,PAYLOAD,2023-05-08 16:08:31,15.08839418,0.000113,53.2161,104.9765,105.7271,254.3846,8.6016e-06,-1.51e-06,0.0,0 STARLINK-3833,1 52578U 22051AU  23128.67258463 -.00000151  00000-0  86016-5 0  9998,2 52578  53.2161 104.9765 0001130 105.7271 254.3846 15.08839418 54971,6917.882,95.438,540.529,538.965,0.0
52578.0,STARLINK-3833,PAYLOAD,2023-05-09 09:37:44,15.08859926,0.000113,53.2167,101.7056,95.911,264.2011,0.00019297,2.786e-05,0.0,0 STARLINK-3833,1 52578U 22051AU  23129.40120588  .00002786  00000-0  19297-3 0  9996,2 52578  53.2167 101.7056 0001130  95.9110 264.2011 15.08859926 55080,6917.819,95.436,540.466,538.903,0.0
52578.0,STARLINK-3833,PAYLOAD,2023-05-10 04:42:23,15.0883555,0.0001093,53.2167,98.1392,95.95,264.1616,5.4512e-05,5.8e-06,0.0,0 STARLINK-3833,1 52578U 22051AU  23130.19610788  .00000580  00000-0  54512-4 0  9990,2 52578  53.2167  98.1392 0001093  95.9500 264.1616 15.08835550 55204,6917.894,95.438,540.515,539.003,0.0
52578.0,STARLINK-3833,PAYLOAD,2023-05-11 04:33:10,15.08842198,0.0001136,53.217,93.6795,97.5576,262.5546,8.7665e-05,1.108e-05,0.0,0 STARLINK-3833,1 52578U 22051AU  23131.18970543  .00001108  00000-0  87665-4 0  9990,2 52578  53.2170  93.6795 0001136  97.5576 262.5546 15.08842198 55350,6917.874,95.437,540.525,538.953,0.0
52578.0,STARLINK-3833,PAYLOAD,2023-05-12 04:23:58,15.08827097,0.000125,53.2179,89.2209,110.8558,249.2568,5.7534e-05,6.28e-06,0.0,0 STARLINK-3833,1 52578U 22051AU  23132.18331937  .00000628  00000-0  57534-4 0  9997,2 52578  53.2179  89.2209 0001250 110.8558 249.2568 15.08827097 55577,6917.92,95.438,540.65,538.92,0.0
52578.0,STARLINK-3833,PAYLOAD,2023-05-13 04:14:44,15.08851058,0.0001043,53.2168,84.7582,97.9972,262.1139,0.00014524,2.025e-05,0.0,0 STARLINK-3833,1 52578U 22051AU  23133.17690377  .00002025  00000-0  14524-3 0  9997,2 52578  53.2168  84.7582 0001043  97.9972 262.1139 15.08851058 55723,6917.847,95.437,540.433,538.99,0.0
52578.0,STARLINK-3833,PAYLOAD,2023-05-14 04:05:32,15.08836636,0.0001193,53.2182,80.2963,76.5928,283.5197,6.744e-05,7.86e-06,0.0,0 STARLINK-3833,1 52578U 22051AU  23134.17051898  .00000786  00000-0  67440-4 0  9995,2 52578  53.2182  80.2963 0001193  76.5928 283.5197 15.08836636 55875,6917.891,95.438,540.581,538.93,0.0
52578.0,STARLINK-3833,PAYLOAD,2023-05-15 02:20:56,15.08846945,0.0001211,53.2177,76.1338,86.6005,273.5126,-2.1325e-06,-3.22e-06,0.0,0 STARLINK-3833,1 52578U 22051AU  23135.09787408 -.00000322  00000-0 -21325-5 0  9991,2 52578  53.2177  76.1338 0001211  86.6005 273.5126 15.08846945 56010,6917.859,95.437,540.562,538.886,0.0
52578.0,STARLINK-3833,PAYLOAD,2023-05-15 13:28:37,15.08851029,0.0001309,53.2178,74.0535,84.7903,275.3238,1.6204e-05,-3e-07,0.0,0 STARLINK-3833,1 52578U 22051AU  23135.56154956 -.00000030  00000-0  16204-4 0  9993,2 52578  53.2178  74.0535 0001309  84.7903 275.3238 15.08851029 56014,6917.847,95.437,540.617,538.806,0.0
52578.0,STARLINK-3833,PAYLOAD,2023-05-16 05:22:29,15.08845226,0.0001412,53.2183,71.0777,95.0558,265.0595,0.00012973,1.778e-05,0.0,0 STARLINK-3833,1 52578U 22051AU  23136.22395146  .00001778  00000-0  12973-3 0  9992,2 52578  53.2183  71.0777 0001412  95.0558 265.0595 15.08845226 56183,6917.864,95.437,540.706,538.753,0.0
52578.0,STARLINK-3833,PAYLOAD,2023-05-17 02:02:30,15.08844185,0.0001344,53.2184,67.2097,97.6719,262.4426,4.2019e-05,3.81e-06,0.0,0 STARLINK-3833,1 52578U 22051AU  23137.08507238  .00000381  00000-0  42019-4 0  9998,2 52578  53.2184  67.2097 0001344  97.6719 262.4426 15.08844185 56319,6917.868,95.437,540.662,538.803,0.0
52578.0,STARLINK-3833,PAYLOAD,2023-05-17 05:13:16,15.08842412,0.0001357,53.2185,66.6161,97.4527,262.6619,3.8607e-05,3.27e-06,0.0,0 STARLINK-3833,1 52578U 22051AU  23137.21755319  .00000327  00000-0  38607-4 0  9996,2 52578  53.2185  66.6161 0001357  97.4527 262.6619 15.08842412 56265,6917.873,95.437,540.677,538.799,0.0
